0 COSMOS 1091
1 11320U 79028A   19121.88785390  .00000014  00000-0 -14648-5 0  9999
2 11320  82.9219 266.2194 0029794 217.3865 257.8536 13.74660878  9705
0 SL-8 R/B
1 11309U 79026B   19122.39182365  .00000033  00000-0  17750-4 0  9990
2 11309  82.9714 239.2537 0018192 331.8959  28.1215 13.77144274 14326
0 COSMOS 1089
1 11308U 79026A   19121.94985525 +.00000031 +00000-0 +16019-4 0  9993
2 11308 082.9731 275.4573 0023888 088.0735 027.9321 13.75170442011570
0 SL-8 R/B
1 11304U 79024J   19121.85764616 -.00000009  00000-0  46025-4 0  9999
2 11304  74.0434  41.2624 0144764 154.1351 206.7015 12.24193460793516
0 COSMOS 1088
1 11303U 79024H   19121.65847506 -.00000009 +00000-0 +50069-4 0  9999
2 11303 074.0333 190.9814 0052282 236.4719 236.2003 12.40121527816740
0 COSMOS 1087
1 11302U 79024G   19121.91282017 -.00000013 +00000-0 +13864-4 0  9994
2 11302 074.0320 093.1803 0036895 133.1706 288.0551 12.42839264820607
0 COSMOS 1086
1 11301U 79024F   19122.84687889 -.00000028 +00000-0 -79678-4 0  9994
2 11301 074.0324 272.1146 0011018 290.0835 181.5301 12.47841390828038
0 COSMOS 1085
1 11300U 79024E   19121.84773993 -.00000009 +00000-0 +44360-4 0  9992
2 11300 074.0364 006.6528 0024291 022.0201 049.2753 12.45251454824202
0 COSMOS 1084
1 11299U 79024D   19121.64054477 -.00000004 +00000-0 +76121-4 0  9991
2 11299 074.0331 181.2156 0001245 062.5583 052.7579 12.50447988831709
0 COSMOS 1083
1 11298U 79024C   19121.95072992 -.00000015 +00000-0 +36800-5 0  9999
2 11298 074.0315 101.5504 0015369 275.8202 113.6764 12.52571054834903
0 COSMOS 1082
1 11297U 79024B   19121.88470593 -.00000013 +00000-0 +16065-4 0  9997
2 11297 074.0363 017.1647 0026992 184.9622 247.6710 12.54918137438183
0 COSMOS 1081
1 11296U 79024A   19121.91366799 -.00000011 +00000-0 +29823-4 0  9996
2 11296 074.0318 290.5287 0038938 074.8000 033.5147 12.57245614841785
0 SL-3 DEB
1 11290U 79021C   19121.90113412 -.00000042 +00000-0 -29868-4 0  9992
2 11290 081.2021 166.9653 0030583 255.8518 103.9255 14.10832748066968
0 SL-3 R/B
1 11289U 79021B   19121.73818872 +.00000097 +00000-0 +44571-4 0  9999
2 11289 081.2487 217.2522 0076766 094.1095 266.8855 14.11588621067015
0 METEOR 2-4
1 11288U 79021A   19121.61046803  .00000037  00000-0  13038-4 0  9990
2 11288  81.2158 168.4688 0024813 121.6485 238.7112 14.11857383 67876
0 SL-14 R/B
1 11267U 79011B   19121.91951527 +.00000086 +00000-0 +64563-5 0  9991
2 11267 082.5223 303.9217 0018326 113.8407 246.4734 14.88931472156009
0 METEOR 1-29
1 11251U 79005A   19121.69686161 +.00000867 +00000-0 +25514-4 0  9990
2 11251 097.6671 021.4669 0016519 153.4640 206.7454 15.37961149745089
0 SL-8 R/B
1 11239U 79003B   19121.93348699 +.00000121 +00000-0 +10900-3 0  9997
2 11239 082.9353 301.0384 0039408 283.3882 183.9230 13.75831516021622
0 COSMOS 1072
1 11238U 79003A   19121.95689918 +.00000054 +00000-0 +40990-4 0  9998
2 11238 082.9399 332.1742 0037783 022.0414 086.3653 13.74146784019837
0 SL-8 R/B
1 11170U 78122B   19121.93322663 +.00000009 +00000-0 -98915-5 0  9995
2 11170 082.9681 130.4847 0025558 174.0109 235.6886 13.22037255928894
0 COSMOS 1067
1 11168U 78122A   19121.60631834 +.00000040 +00000-0 +67468-4 0  9991
2 11168 082.9710 161.6891 0034913 316.7338 160.1255 13.20153581927556
0 SL-3 R/B
1 11166U 78121B   19121.80491126 -.00000074 +00000-0 -45542-4 0  9996
2 11166 081.2411 232.5646 0067382 116.7854 244.0233 14.13741651080324
0 COSMOS 1066
1 11165U 78121A   19122.88890929 +.00000130 +00000-0 +64327-4 0  9991
2 11165 081.2359 277.9314 0048355 280.5028 079.0698 14.11609979594214
0 SL-8 R/B
1 11136U 78109J   19122.66595738 +.00000045 +00000-0 +57553-3 0  9998
2 11136 074.0154 193.9287 0131134 237.0542 121.7826 12.19163751798546
0 COSMOS 1058
1 11135U 78109H   19122.67608382 -.00000013 +00000-0 +19983-4 0  9990
2 11135 074.0164 194.9069 0035998 114.9918 000.8792 12.39465437828255
0 COSMOS 1057
1 11134U 78109G   19122.95434081 -.00000025 +00000-0 -68371-4 0  9992
2 11134 074.0146 099.6183 0021930 357.6295 065.0741 12.42090919832117
0 COSMOS 1056
1 11133U 78109F   19122.86355220 -.00000006 +00000-0 +71191-4 0  9990
2 11133 074.0198 013.2374 0020385 224.1480 205.6432 12.44475296835595
0 COSMOS 1055
1 11132U 78109E   19122.89881655 -.00000023 +00000-0 -46793-4 0  9998
2 11132 074.0151 284.9204 0016513 080.1278 032.5957 12.46910757839192
0 COSMOS 1054
1 11131U 78109D   19122.68754105 -.00000007 +00000-0 +58650-4 0  9999
2 11131 074.0171 198.6559 0027700 321.8843 152.8485 12.49269593842701
0 COSMOS 1053
1 11130U 78109C   19122.93853076 -.00000008 +00000-0 +51886-4 0  9998
2 11130 074.0137 118.3711 0037841 221.0814 176.3924 12.51454942845953
0 COSMOS 1052
1 11129U 78109B   19122.94318769 -.00000019 +00000-0 -21870-4 0  9995
2 11129 074.0200 036.1921 0049137 125.2478 308.0642 12.53682436849176
0 COSMOS 1051
1 11128U 78109A   19122.91927603 -.00000002 +00000-0 +83072-4 0  9997
2 11128 074.0154 313.6739 0058165 020.4417 084.1788 12.55919335852397
0 SL-8 DEB
1 11114U 78105D   19122.88080354 +.00000393 +00000-0 +62691-4 0  9993
2 11114 074.0112 289.4587 0005285 129.7721 230.3919 14.75555050142963
0 SL-8 DEB
1 11113U 78105C   19121.54336118  .00000328  00000-0  64185-4 0  9994
2 11113  74.0265 153.6346 0009735 295.7522  64.2642 14.67009515136559
0 SL-8 R/B
1 11112U 78105B   19122.94009949 +.00000076 +00000-0 +34280-4 0  9990
2 11112 074.0317 346.4260 0034101 334.2431 025.7023 14.37223585117877
0 COSMOS 1048
1 11111U 78105A   19122.25871450 -.00000013  00000-0  48224-5 0  9993
2 11111  74.0281  65.0500 0015337  85.7822 274.5082 14.34243333115157
0 SL-14 R/B
1 11087U 78100D   19122.96205667 +.00000005 +00000-0 -47342-4 0  9999
2 11087 082.5492 069.4052 0010286 108.0919 314.9382 11.97024407770403
0 RADIO 2
1 11086U 78100C   19122.35050845 +.00000018 +00000-0 +12346-3 0  9995
2 11086 082.5490 076.6624 0013129 127.0236 027.7229 11.96726630769769
0 RADIO 1
1 11085U 78100B   19122.96052147 -.00000038 +00000-0 -60093-3 0  9994
2 11085 082.5479 078.0738 0013671 133.1700 289.1832 11.96547348769595
0 COSMOS 1045
1 11084U 78100A   19122.96089384 -.00000048 +00000-0 -72690-3 0  9993
2 11084 082.5486 074.2952 0013080 126.4067 294.6717 11.96756338769979
0 DELTA 1 R/B(+CAMEO)
1 11081U 78098B   19122.70430596 -.00000040  00000-0  50320-5 0  9992
2 11081  99.4584  14.4715 0028120 252.1007 107.7081 13.85668282887561
0 NIMBUS 7
1 11080U 78098A   19122.84183007 -.00000053 +00000-0 -60049-5 0  9992
2 11080 099.5758 274.0900 0008158 306.4380 053.6021 13.84304785046621
0 TIROS N DEB
1 11062U 78096C   19122.82677468 +.00000843 +00000-0 +77357-4 0  9991
2 11062 098.8590 068.8708 0002073 035.5320 324.6036 14.98135944146269
0 TIROS N DEB
1 11061U 78096B   19121.53611138  .00000821  00000-0  86650-4 0  9991
2 11061  98.8491  35.5891 0002255  78.9624 281.1846 14.92595513144510
0 TIROS N
1 11060U 78096A   19121.20328969  .00000008  00000-0  25521-4 0  9998
2 11060  98.7950 178.9901 0010699 181.1024 179.0129 14.18231176309796
0 SL-8 R/B
1 11051U 78091J   19122.66952622 -.00000058 +00000-0 -41581-3 0  9993
2 11051 074.0415 182.2604 0135955 060.2498 056.2468 12.20495209807933
0 COSMOS 1041
1 11050U 78091H   19122.95561781 -.00000030 +00000-0 -10697-3 0  9990
2 11050 074.0354 079.0948 0020071 197.1471 219.6114 12.43286013841646
0 COSMOS 1040
1 11049U 78091G   19122.93380847 +.00000011 +00000-0 +19963-3 0  9990
2 11049 074.0337 167.7480 0030813 317.9404 107.2410 12.40841811838034
0 COSMOS 1039
1 11048U 78091F   19122.88106274 -.00000029 +00000-0 -10900-3 0  9996
2 11048 074.0342 270.8377 0045867 071.3707 041.0115 12.37992176355478
0 COSMOS 1038
1 11047U 78091E   19122.74323947 +.00000006 +00000-0 +14684-3 0  9994
2 11047 074.0365 344.4864 0005697 058.5722 006.8514 12.45892881436745
0 COSMOS 1037
1 11046U 78091D   19122.82071135 -.00000033 +00000-0 -11504-3 0  9991
2 11046 074.0350 253.7117 0013194 235.2514 238.0951 12.48368414849133
0 COSMOS 1036
1 11045U 78091C   19122.60760027 +.00000014 +00000-0 +19032-3 0  9992
2 11045 074.0338 164.5261 0023879 114.9302 002.1388 12.50808162852787
0 COSMOS 1035
1 11044U 78091B   19122.93603500 +.00000011 +00000-0 +16454-3 0  9991
2 11044 074.0364 344.6256 0049481 257.2053 205.2678 12.55660224859966
0 COSMOS 1034
1 11042U 78091A   19122.97060856 -.00000035 +00000-0 -12228-3 0  9997
2 11042 074.0356 077.2866 0037231 013.4969 052.4346 12.53155891856248
0 SL-8 R/B
1 10992U 78074B   19122.94853025 +.00000158 +00000-0 +14252-3 0  9999
2 10992 082.9298 124.3039 0019594 013.0784 046.9507 13.77896023228935
0 COSMOS 1027
1 10991U 78074A   19122.62160872  .00000048  00000-0  33150-4 0  9991
2 10991  82.9346 151.8930 0028223 105.0228   8.6043 13.76451917 47260
0 THORAD DELTA 1 DEB
1 10990U 74089EK  19122.66427031 -.00000026 +00000-0 +98304-4 0  9998
2 10990 101.3088 186.3852 0073688 263.3032 229.2163 12.64996366052224
0 SL-14 R/B
1 10974U 78067B   19121.91487800  .00000054  00000-0  32915-5 0  9994
2 10974  82.4834 241.6123 0016167 234.5933 125.3775 14.87316047209182
0 SEASAT 1
1 10967U 78064A   19121.38811181 -.00000030  00000-0  31486-4 0  9993
2 10967 108.0166 287.5606 0000841 261.1375  98.9674 14.43766315145204
0 SL-8 R/B
1 10962U 78063B   19121.22130285  .00000001  00000-0  83410-5 0  9991
2 10962  74.0820  37.9220 0024412 126.4447 233.8964 14.41160093144266
0 COSMOS 1023
1 10961U 78063A   19122.60781938 +.00000026 +00000-0 +17758-4 0  9998
2 10961 074.0761 180.9371 0017642 280.9623 078.9545 14.36486649139139
0 DELTA 1 R/B(1)
1 10954U 78062B   19122.40144947 +.00000114 +00000-0 -10461-5 0  9994
2 10954 028.4264 135.5836 0698630 157.8987 205.3273 13.50912364008964
0 SL-8 R/B
1 10938U 78056J   19122.47958432 +.00000095 +00000-0 +10156-2 0  9993
2 10938 074.0181 131.4106 0133523 232.0045 241.2416 12.21530729823828
0 COSMOS 1020
1 10937U 78056H   19122.79118754 -.00000005  00000-0  69941-4 0  9992
2 10937  74.0297  14.4100 0049250 155.6784 204.6609 12.54512170873280
0 COSMOS 1019
1 10936U 78056G   19122.44892687 -.00000012 +00000-0 +24419-4 0  9996
2 10936 074.0243 104.1580 0041632 271.3008 206.2917 12.52115738869439
